GLOBALSTAR M068 [-]     
1 32266U 07048D   23237.31145109 -.00000080  00000+0  13216-3 0  9993
2 32266  51.9880 159.7680 0001053  90.8876  61.2531 12.62764847733935
GLOBALSTAR M079 [+]     
1 37188U 10054A   23237.51967907 -.00000095  00000+0  50834-4 0  9996
2 37188  52.0069 354.0102 0000575  96.9583 343.3893 12.62267042592891
GLOBALSTAR M074 [+]     
1 37189U 10054B   23237.54607251 -.00000095  00000+0  46681-4 0  9998
2 37189  52.0043 353.3550 0000752  99.4304 340.8657 12.62268995593506
GLOBALSTAR M076 [+]     
1 37190U 10054C   23237.49241413 -.00000104  00000+0 -18987-5 0  9999
2 37190  52.0052 353.6265 0000679  51.0749  26.7380 12.62260232593216
GLOBALSTAR M077 [+]     
1 37191U 10054D   23237.40087903 -.00000082  00000+0  12060-3 0  9991
2 37191  52.0084 310.5757 0000563 105.4496 334.7028 12.62270326593570
GLOBALSTAR M075 [+]     
1 37192U 10054E   23237.58423389 -.00000099  00000+0  24303-4 0  9995
2 37192  51.9960  35.9713 0000588  85.7854 348.7030 12.62260453592451
GLOBALSTAR M073 [+]     
1 37193U 10054F   23237.51131590 -.00000080  00000+0  13100-3 0  9991
2 37193  52.0071 309.5130 0000512 112.1144 350.3866 12.62266706594279
GLOBALSTAR M083 [+]     
1 37739U 11033A   23237.45392253 -.00000097  00000+0  35752-4 0  9999
2 37739  51.9843 259.3210 0000406 149.3706 353.1176 12.62268793563289
GLOBALSTAR M088 [+]     
1 37740U 11033B   23237.18980062 -.00000099  00000+0  24342-4 0  9997
2 37740  51.9727 166.1723 0000159  37.1517 104.2919 12.62264897558796
GLOBALSTAR M091 [+]     
1 37741U 11033C   23237.12567133 -.00000100  00000+0  21096-4 0  9998
2 37741  51.9991 128.7395 0000284  58.8616  90.4529 12.62265794559575
GLOBALSTAR M085 [+]     
1 37742U 11033D   23237.03670144 -.00000109  00000+0 -29657-4 0  9997
2 37742  51.9862  80.6332 0000566  81.8330  83.8416 12.62266525560073
GLOBALSTAR M081 [+]     
1 37743U 11033E   23237.50369984 -.00000103  00000+0  33057-5 0  9990
2 37743  51.9953  81.5906 0000488  59.3482 308.9167 12.62270394560289
GLOBALSTAR M089 [+]     
1 37744U 11033F   23237.46994458 -.00000104  00000+0 -40134-5 0  9992
2 37744  51.9942  36.0447 0000875  72.2199 322.4271 12.62266279561120
GLOBALSTAR M084 [+]     
1 38040U 11080A   23237.51063515 -.00000077  00000+0  15046-3 0  9991
2 38040  51.9989 262.8625 0000428  74.3643  84.7468 12.62265059539103
GLOBALSTAR M080 [+]     
1 38041U 11080B   23237.48101632 -.00000069  00000+0  19435-3 0  9998
2 38041  52.0042 264.3260 0000404  47.5091  97.5217 12.62263874539221
GLOBALSTAR M082 [+]     
1 38042U 11080C   23237.40973095 -.00000088  00000+0  87743-4 0  9990
2 38042  52.0051 219.9173 0000594 161.8809 318.8148 12.62270197539923
GLOBALSTAR M092 [+]     
1 38043U 11080D   23237.53862344 -.00000089  00000+0  79739-4 0  9996
2 38043  52.0092 309.8686 0000795  90.7188  16.1258 12.62271719538391
GLOBALSTAR M090 [+]     
1 38044U 11080E   23237.44831719 -.00000084  00000+0  11264-3 0  9992
2 38044  51.9861 214.4612 0000117 130.7724  45.4014 12.62267131540046
GLOBALSTAR M086 [+]     
1 38045U 11080F   23237.30795125 -.00000079  00000+0  13729-3 0  9990
2 38045  51.9876 215.3872 0000908 305.7504 193.0022 12.62269710539973
GLOBALSTAR M097 [+]     
1 39072U 13005A   23237.06664589 -.00000105  00000+0 -74928-5 0  9993
2 39072  52.0041 129.9987 0000273  68.7256 291.3640 12.62270251487198
GLOBALSTAR M093 [+]     
1 39073U 13005B   23237.11918479 -.00000104  00000+0 -49211-6 0  9997
2 39073  51.9804 124.2005 0000111  33.8036 326.2837 12.62266170487150
GLOBALSTAR M094 [+]     
1 39074U 13005C   23237.59434621 -.00000109  00000+0 -27652-4 0  9990
2 39074  51.9973  36.4723 0000612  88.9548 271.1388 12.62266961488826
GLOBALSTAR M096 [+]     
1 39075U 13005D   23237.05310631 -.00000109  00000+0 -31572-4 0  9992
2 39075  52.0065  86.1172 0000421  73.9102 286.1811 12.62268083487675
GLOBALSTAR M078 [+]     
1 39076U 13005E   23237.18484440 -.00000089  00000+0  82927-4 0  9993
2 39076  51.9864 171.1248 0001027 131.9016 228.1938 12.62269702486317
GLOBALSTAR M095 [+]     
1 39077U 13005F   23237.13256227 -.00000098  00000+0  30605-4 0  9995
2 39077  51.9792 168.8130 0000430 154.9119 205.1769 12.62268056486168
GLOBALSTAR M087 [+]     
1 52888U 22064A   23237.15767138 -.00000104  00000+0  46532-4 0  9999
2 52888  51.9752 164.0897 0009470 333.9574  26.0850 13.37551151 57770
